NORAD_CAT_ID,OBJECT_NAME,OBJECT_TYPE,EPOCH,MEAN_MOTION,ECCENTRICITY,INCLINATION,RA_OF_ASC_NODE,ARG_OF_PERICENTER,MEAN_ANOMALY,BSTAR,MEAN_MOTION_DOT,MEAN_MOTION_DDOT,TLE_LINE0,TLE_LINE1,TLE_LINE2,SEMIMAJOR_AXIS,PERIOD,APOGEE,PERIGEE,DECAYED
53623.0,STARLINK-4573,PAYLOAD,2022-10-15 22:00:01,15.5217042,0.0001479,53.2171,47.2419,45.44,59.8294,-0.0189419999999999,-0.01059708,0.0,0 STARLINK-4573,1 53623U 22104AM  22288.91668981 -.01059708  00000-0 -18942-1 0  9995,2 53623  53.2171  47.2419 0001479  45.4400  59.8294 15.52170420  1303,6788.526999999999,92.773,411.396,409.388,0.0
53623.0,STARLINK-4573,PAYLOAD,2022-10-16 14:00:01,15.50526196,0.0001727,53.2173,44.0488,33.7164,196.9859,-0.012517,-0.00668387,0.0,0 STARLINK-4573,1 53623U 22104AM  22289.58334491 -.00668387  00000-0 -12517-1 0  9995,2 53623  53.2173  44.0488 0001727  33.7164 196.9859 15.50526196  1302,6793.326,92.872,416.364,414.017,0.0
53623.0,STARLINK-4573,PAYLOAD,2022-10-16 22:00:00,15.49919542,0.0001556,53.2172,42.4544,40.8148,251.2991,-0.0010192,-0.00057942,0.0,0 STARLINK-4573,1 53623U 22104AM  22289.91667824 -.00057942  00000-0 -10192-2 0  9998,2 53623  53.2172  42.4544 0001556  40.8148 251.2991 15.49919542  7854,6795.098000000001,92.908,418.021,415.906,0.0
53623.0,STARLINK-4573,PAYLOAD,2022-10-17 14:00:01,15.49987643,0.0001865,53.2174,39.2686,30.1643,23.7733,-0.005273,-0.0028999,0.0,0 STARLINK-4573,1 53623U 22104AM  22290.58334491 -.00289990  00000-0 -52730-2 0  9998,2 53623  53.2174  39.2686 0001865  30.1643  23.7733 15.49987643  7967,6794.899,92.904,418.031,415.497,0.0
53623.0,STARLINK-4573,PAYLOAD,2022-10-17 22:00:00,15.5021266,0.0001949,53.2167,37.6758,31.4791,83.2006,-0.02483,-0.01290308,0.0,0 STARLINK-4573,1 53623U 22104AM  22290.91667824 -.01290308  00000-0 -24830-1 0  9999,2 53623  53.2167  37.6758 0001949  31.4791  83.2006 15.50212660  8015,6794.2419999999975,92.89,417.431,414.782,0.0
53623.0,STARLINK-4573,PAYLOAD,2022-10-18 06:00:00,15.49280255,0.0001784,53.2174,36.0811,39.1016,136.3116,-0.020997,-0.01059192,0.0,0 STARLINK-4573,1 53623U 22104AM  22291.25001157 -.01059192  00000-0 -20997-1 0  9992,2 53623  53.2174  36.0811 0001784  39.1016 136.3116 15.49280255  8068,6796.967,92.946,420.045,417.62,0.0
53623.0,STARLINK-4573,PAYLOAD,2022-10-18 14:00:01,15.48523976,0.0006312,53.2175,34.4924,271.6121,323.5207,-0.021648,-0.01064532,0.0,0 STARLINK-4573,1 53623U 22104AM  22291.58334491 -.01064532  00000-0 -21648-1 0  9996,2 53623  53.2175  34.4924 0006312 271.6121 323.5207 15.48523976  8114,6799.18,92.992,425.337,416.754,0.0
53623.0,STARLINK-4573,PAYLOAD,2022-10-18 22:00:00,15.47762736,0.0001763,53.2173,32.9027,32.7516,261.1922,-0.022211,-0.01061762,0.0,0 STARLINK-4573,1 53623U 22104AM  22291.91667824 -.01061762  00000-0 -22211-1 0  9991,2 53623  53.2173  32.9027 0001763  32.7516 261.1922 15.47762736  1301,6801.409000000002,93.038,424.473,422.075,0.0
53623.0,STARLINK-4573,PAYLOAD,2022-10-19 14:00:01,15.46246113,0.000153,53.2174,29.7313,40.468,8.3547,-0.023484,-0.01064409,0.0,0 STARLINK-4573,1 53623U 22104AM  22292.58334491 -.01064409  00000-0 -23484-1 0  9990,2 53623  53.2174  29.7313 0001530  40.4680   8.3547 15.46246113  1303,6805.856,93.129,428.762,426.68,0.0
53623.0,STARLINK-4573,PAYLOAD,2022-10-19 22:00:00,15.4548182,0.0001774,53.2172,28.1469,34.8552,70.0414,-0.023924,-0.01056874,0.0,0 STARLINK-4573,1 53623U 22104AM  22292.91667824 -.01056874  00000-0 -23924-1 0  9992,2 53623  53.2172  28.1469 0001774  34.8552  70.0414 15.45481820  8324,6808.1,93.175,431.172,428.757,0.0
53623.0,STARLINK-4573,PAYLOAD,2022-10-20 14:00:01,15.43962382,0.0001804,53.2173,24.9863,41.0385,173.2624,-0.025171,-0.01055578,0.0,0 STARLINK-4573,1 53623U 22104AM  22293.58334491 -.01055578  00000-0 -25171-1 0  9993,2 53623  53.2173  24.9863 0001804  41.0385 173.2624 15.43962382  1300,6812.566,93.267,435.66,433.202,0.0
53623.0,STARLINK-4573,PAYLOAD,2022-10-20 22:00:00,15.43205268,0.0001774,53.2173,23.4074,35.2447,232.3895,-0.025945,-0.01074761,0.0,0 STARLINK-4573,1 53623U 22104AM  22293.91667824 -.01074761  00000-0 -25945-1 0  9993,2 53623  53.2173  23.4074 0001774  35.2447 232.3895 15.43205268  1308,6814.794,93.312,437.86800000000005,435.45,0.0
53623.0,STARLINK-4573,PAYLOAD,2022-10-21 14:00:01,15.41686123,0.0001716,53.2174,20.2578,34.1805,337.3818,-0.02729,-0.01074012,0.0,0 STARLINK-4573,1 53623U 22104AM  22294.58334491 -.01074012  00000-0 -27290-1 0  9992,2 53623  53.2174  20.2578 0001716  34.1805 337.3818 15.41686123  1307,6819.27,93.404,442.305,439.964,0.0
53623.0,STARLINK-4573,PAYLOAD,2022-10-21 22:00:00,15.40932181,0.0001831999999999,53.2171,18.6843,33.0018,29.1538,-0.028196,-0.01081381,0.0,0 STARLINK-4573,1 53623U 22104AM  22294.91667824 -.01081381  00000-0 -28196-1 0  9991,2 53623  53.2171  18.6843 0001832  33.0018  29.1538 15.40932181  1305,6821.494000000002,93.45,444.609,442.109,0.0
53623.0,STARLINK-4573,PAYLOAD,2022-10-22 14:00:01,15.39427998,0.0001719,53.2175,15.5457,43.804,116.7964,-0.0302279999999999,-0.01100981,0.0,0 STARLINK-4573,1 53623U 22104AM  22295.58334491 -.01100981  00000-0 -30228-1 0  9993,2 53623  53.2175  15.5457 0001719  43.8040 116.7964 15.39427998  1303,6825.937,93.541,448.975,446.628,0.0
53623.0,STARLINK-4573,PAYLOAD,2022-10-22 22:00:00,15.38650633,0.0001688,53.2173,13.9773,44.4788,163.9887,-0.030272,-0.01076778,0.0,0 STARLINK-4573,1 53623U 22104AM  22295.91667824 -.01076778  00000-0 -30272-1 0  9994,2 53623  53.2173  13.9773 0001688  44.4788 163.9887 15.38650633  8785,6828.236,93.588,451.253,448.948,0.0
53623.0,STARLINK-4573,PAYLOAD,2022-10-23 14:00:01,15.37131368,0.0001613,53.2176,10.8498,39.8146,261.6286,-0.031771,-0.0107537,0.0,0 STARLINK-4573,1 53623U 22104AM  22296.58334491 -.01075370  00000-0 -31771-1 0  9991,2 53623  53.2176  10.8498 0001613  39.8146 261.6286 15.37131368  1300,6832.734,93.681,455.701,453.497,0.0
53623.0,STARLINK-4573,PAYLOAD,2022-10-23 22:00:00,15.36370394,0.0001644,53.2173,9.2865,36.6719,309.8928,-0.032542,-0.01074639,0.0,0 STARLINK-4573,1 53623U 22104AM  22296.91667824 -.01074639  00000-0 -32542-1 0  9991,2 53623  53.2173   9.2865 0001644  36.6719 309.8928 15.36370394  8939,6834.99,93.727,457.979,455.731,0.0
53623.0,STARLINK-4573,PAYLOAD,2022-10-24 14:00:01,15.34851861,0.0001806,53.2175,6.1699,35.3049,38.7592,-0.034163,-0.01074317,0.0,0 STARLINK-4573,1 53623U 22104AM  22297.58334491 -.01074317  00000-0 -34163-1 0  9990,2 53623  53.2175   6.1699 0001806  35.3049  38.7592 15.34851861  1304,6839.498000000001,93.82,462.598,460.127,0.0
53623.0,STARLINK-4573,PAYLOAD,2022-10-24 22:00:00,15.34086867,0.0001853,53.2174,4.612,36.6091,79.8399,-0.034717,-0.01066061,0.0,0 STARLINK-4573,1 53623U 22104AM  22297.91667824 -.01066061  00000-0 -34717-1 0  9998,2 53623  53.2174   4.6120 0001853  36.6091  79.8399 15.34086867  9099,6841.771,93.867,464.904,462.36800000000005,0.0
53623.0,STARLINK-4573,PAYLOAD,2022-10-25 14:00:01,15.32572945,0.0001794,53.2173,1.5065,44.2577,154.2122,-0.036642,-0.01071798,0.0,0 STARLINK-4573,1 53623U 22104AM  22298.58334491 -.01071798  00000-0 -36642-1 0  9995,2 53623  53.2173   1.5065 0001794  44.2577 154.2122 15.32572945  1303,6846.276,93.96,469.369,466.913,0.0
53623.0,STARLINK-4573,PAYLOAD,2022-10-25 22:00:01,15.3181251,0.0001801,53.2173,359.9537,39.4734,198.7058,-0.037524,-0.01071595,0.0,0 STARLINK-4573,1 53623U 22104AM  22298.91668981 -.01071595  00000-0 -37524-1 0  9991,2 53623  53.2173 359.9537 0001801  39.4734 198.7058 15.31812510  1302,6848.542,94.006,471.64,469.173,0.0
53623.0,STARLINK-4573,PAYLOAD,2022-10-26 14:00:01,15.30289349,0.0001875,53.2175,356.8587,32.3254,282.3394,-0.039082,-0.0106471,0.0,0 STARLINK-4573,1 53623U 22104AM  22299.58334491 -.01064710  00000-0 -39082-1 0  9993,2 53623  53.2175 356.8587 0001875  32.3254 282.3394 15.30289349  1305,6853.085,94.1,476.235,473.665,0.0
53623.0,STARLINK-4573,PAYLOAD,2022-10-26 22:00:00,15.2953138,0.0001460999999999,53.2175,355.3114,43.7881,307.7829,-0.040147,-0.01067864,0.0,0 STARLINK-4573,1 53623U 22104AM  22299.91667824 -.01067864  00000-0 -40147-1 0  9996,2 53623  53.2175 355.3114 0001461  43.7881 307.7829 15.29531380  9393,6855.349,94.146,478.216,476.213,0.0
53623.0,STARLINK-4573,PAYLOAD,2022-10-27 14:00:01,15.28014508,0.0001778,53.2169,352.2277,36.5393,26.1652,-0.042134,-0.0106936,0.0,0 STARLINK-4573,1 53623U 22104AM  22300.58335648 -.01069360  00000-0 -42134-1 0  9999,2 53623  53.2169 352.2277 0001778  36.5393  26.1652 15.28014508  1307,6859.885,94.24,482.97,480.531,0.0
53623.0,STARLINK-4573,PAYLOAD,2022-10-27 22:00:00,15.27250787,0.0001710999999999,53.2175,350.6853,38.9022,57.9099,-0.042901,-0.01064073,0.0,0 STARLINK-4573,1 53623U 22104AM  22300.91667824 -.01064073  00000-0 -42901-1 0  9998,2 53623  53.2175 350.6853 0001711  38.9022  57.9099 15.27250787  1305,6862.172,94.287,485.211,482.86300000000006,0.0
53623.0,STARLINK-4573,PAYLOAD,2022-10-28 00:00:02,15.27060993,0.0001774,53.2173,350.3002,42.5584,152.7167,-0.043143,-0.01063911,0.0,0 STARLINK-4573,1 53623U 22104AM  22301.00002315 -.01063911  00000-0 -43143-1 0  9996,2 53623  53.2173 350.3002 0001774  42.5584 152.7167 15.27060993  9563,6862.741,94.299,485.823,483.388,0.0
53623.0,STARLINK-4573,PAYLOAD,2022-10-28 14:00:01,15.25730989,0.0001779,53.217,347.6121,42.6792,119.7922,-0.044825,-0.01061726,0.0,0 STARLINK-4573,1 53623U 22104AM  22301.58335648 -.01061726  00000-0 -44825-1 0  9997,2 53623  53.2170 347.6121 0001779  42.6792 119.7922 15.25730989  1301,6866.728,94.381,489.815,487.372,0.0
53623.0,STARLINK-4573,PAYLOAD,2022-10-28 22:00:01,15.24971495,0.0001779,53.2174,346.0752,42.331,151.5711,-0.04588,-0.01062006,0.0,0 STARLINK-4573,1 53623U 22104AM  22301.91668981 -.01062006  00000-0 -45880-1 0  9997,2 53623  53.2174 346.0752 0001779  42.3310 151.5711 15.24971495  9701,6869.0080000000025,94.428,492.095,489.651,0.0
